
# Worst residual: 17.30 km
# MJD 58975.000000 (2020 May  6  0:00)
2010-050B = RV223A9 = Chang'e 2 booster
1 99999U 10050B   20127.49919926  .00000000  00000-0  00000-0 2  7217
2 99999 021.7100 339.2240 7662911 353.8592 229.8511 00.02265178    07

# Worst residual: 13.92 km
# MJD 58976.000000 (2020 May  7  0:00)
2010-050B = RV223A9 = Chang'e 2 booster
1 99999U 10050B   20128.49919926  .00000000  00000-0  00000-0 2  7218
2 99999 021.7380 339.2310 7648957 353.5883 238.9038 00.02254510    02

# Worst residual: 9.88 km
# MJD 58977.000000 (2020 May  8  0:00)
2010-050B = RV223A9 = Chang'e 2 booster
1 99999U 10050B   20129.49919926  .00000000  00000-0  00000-0 2  7219
2 99999 021.7433 339.2326 7639821 353.3823 247.6754 00.02245710    04

# Worst residual: 5.59 km
# MJD 58978.000000 (2020 May  9  0:00)
2010-050B = RV223A9 = Chang'e 2 booster
1 99999U 10050B   20130.49919926  .00000000  00000-0  00000-0 2  7211
2 99999 021.7241 339.2239 7632607 353.2412 256.1816 00.02238903    02

# Worst residual: 4.81 km
# MJD 58979.000000 (2020 May 10  0:00)
2010-050B = RV223A9 = Chang'e 2 booster
1 99999U 10050B   20131.49919926  .00000000  00000-0  00000-0 2  7212
2 99999 021.6828 339.2008 7624830 353.1568 264.4552 00.02234076    02

# Worst residual: 5.19 km
# MJD 58980.000000 (2020 May 11  0:00)
2010-050B = RV223A9 = Chang'e 2 booster
1 99999U 10050B   20132.49919926  .00000000  00000-0  00000-0 2  7213
2 99999 021.6242 339.1611 7614762 353.1165 272.5384 00.02231152    02

# Worst residual: 6.15 km
# MJD 58981.000000 (2020 May 12  0:00)
2010-050B = RV223A9 = Chang'e 2 booster
1 99999U 10050B   20133.49919926  .00000000  00000-0  00000-0 2  7214
2 99999 021.5542 339.1043 7601504 353.1064 280.4764 00.02230048    04

# Worst residual: 8.67 km
# MJD 58982.000000 (2020 May 13  0:00)
2010-050B = RV223A9 = Chang'e 2 booster
1 99999U 10050B   20134.49919926  .00000000  00000-0  00000-0 2  7215
2 99999 021.4791 339.0319 7584861 353.1138 288.3117 00.02230731    00

# Worst residual: 10.67 km
# MJD 58983.000000 (2020 May 14  0:00)
2010-050B = RV223A9 = Chang'e 2 booster
1 99999U 10050B   20135.49919926  .00000000  00000-0  00000-0 2  7216
2 99999 021.4046 338.9466 7565156 353.1286 296.0821 00.02233255    06

# Worst residual: 12.10 km
# MJD 58984.000000 (2020 May 15  0:00)
2010-050B = RV223A9 = Chang'e 2 booster
1 99999U 10050B   20136.49919926  .00000000  00000-0  00000-0 2  7217
2 99999 021.3354 338.8524 7543041 353.1444 303.8205 00.02237794    01

# Worst residual: 13.01 km
# MJD 58985.000000 (2020 May 16  0:00)
2010-050B = RV223A9 = Chang'e 2 booster
1 99999U 10050B   20137.49919926  .00000000  00000-0  00000-0 2  7218
2 99999 021.2752 338.7540 7519342 353.1586 311.5554 00.02244679    06

# Worst residual: 13.39 km
# MJD 58986.000000 (2020 May 17  0:00)
2010-050B = RV223A9 = Chang'e 2 booster
1 99999U 10050B   20138.49919926  .00000000  00000-0  00000-0 2  7219
2 99999 021.2266 338.6570 7494919 353.1730 319.3126 00.02254460    01

# Worst residual: 13.36 km
# MJD 58987.000000 (2020 May 18  0:00)
2010-050B = RV223A9 = Chang'e 2 booster
1 99999U 10050B   20139.49919926  .00000000  00000-0  00000-0 2  7210
2 99999 021.1910 338.5674 7470495 353.1951 327.1174 00.02268005    08

# Worst residual: 13.21 km
# MJD 58988.000000 (2020 May 19  0:00)
2010-050B = RV223A9 = Chang'e 2 booster
1 99999U 10050B   20140.49919926  .00000000  00000-0  00000-0 2  7212
2 99999 021.1686 338.4915 7446379 353.2385 334.9974 00.02286681    05

# Worst residual: 11.92 km
# MJD 58989.000000 (2020 May 20  0:00)
2010-050B = RV223A9 = Chang'e 2 booster
1 99999U 10050B   20141.49919926  .00000000  00000-0  00000-0 2  7213
2 99999 021.1583 338.4351 7421973 353.3221 342.9892 00.02312567    09

# Worst residual: 9.88 km
# MJD 58990.000000 (2020 May 21  0:00)
2010-050B = RV223A9 = Chang'e 2 booster
1 99999U 10050B   20142.49919926  .00000000  00000-0  00000-0 2  7214
2 99999 021.1570 338.4029 7395405 353.4555 351.1532 00.02347763    07

# Worst residual: 6.77 km
# MJD 58991.000000 (2020 May 22  0:00)
2010-050B = RV223A9 = Chang'e 2 booster
1 99999U 10050B   20143.49919926  .00000000  00000-0  00000-0 2  7215
2 99999 021.1590 338.3944 7371725 353.5727 359.5847 00.02381126    07

# Worst residual: 23.77 km
# MJD 58992.000000 (2020 May 23  0:00)
2010-050B = RV223A9 = Chang'e 2 booster
1 99999U 10050B   20144.49919926  .00000000  00000-0  00000-0 2  7216
2 99999 021.1581 338.3925 7395566 353.7330 008.0208 00.02346848    06

# Worst residual: 77.61 km
# MJD 58993.000000 (2020 May 24  0:00)
2010-050B = RV223A9 = Chang'e 2 booster
1 99999U 10050B   20145.49919926  .00000000  00000-0  00000-0 2  7217
2 99999 021.1601 338.4519 7491658 354.3858 015.3736 00.02205283    04

# Worst residual: 285.30 km
# MJD 58994.000000 (2020 May 25  0:00)
2010-050B = RV223A9 = Chang'e 2 booster
1 99999U 10050B   20146.49919926  .00000000  00000-0  00000-0 2  7218
2 99999 021.0159 340.3142 7748683 356.0372 018.5234 00.01787846    05

# Worst residual: 227.86 km
# MJD 58995.000000 (2020 May 26  0:00)
2010-050B = RV223A9 = Chang'e 2 booster
1 99999U 10050B   20147.49919926  .00000000  00000-0  00000-0 2  7219
2 99999 020.1098 347.8092 7882972 356.6527 018.7566 00.01354646    09
